[
  {
    "OBJECT_NAME": "STARLINK-1475",
    "OBJECT_ID": "20038K",
    "EPOCH": "2025-11-11T08:00:03.000384",
    "MEAN_MOTION": 15.83955427,
    "ECCENTRICITY": 0.0007317,
    "INCLINATION": 53.047,
    "RA_OF_ASC_NODE": 266.354,
    "ARG_OF_PERICENTER": 66.4205,
    "MEAN_ANOMALY": 229.9989,
    "EPHEMERIS_TYPE": 0,
    "CLASSIFICATION_TYPE": "U",
    "NORAD_CAT_ID": 45739,
    "ELEMENT_SET_NO": 999,
    "REV_AT_EPOCH": 598,
    "BSTAR": 0.0014917,
    "MEAN_MOTION_DOT": 0.00354021,
    "MEAN_MOTION_DDOT": 0.0,
    "TLE_LINE1": "1 45739U 20038K   25315.33336806  .00354021  00000+0  14917-2 0  9997",
    "TLE_LINE2": "2 45739  53.0470 266.3540 0007317  66.4205 229.9989 15.83955427  5985",
    "COMMENT": "Grouped by shell and plane from TLE"
  },
  {
    "OBJECT_NAME": "STARLINK-31864",
    "OBJECT_ID": "24111K",
    "EPOCH": "2025-11-11T08:00:03.000384",
    "MEAN_MOTION": 15.58611339,
    "ECCENTRICITY": 0.0014567,
    "INCLINATION": 53.1484,
    "RA_OF_ASC_NODE": 260.0423,
    "ARG_OF_PERICENTER": 119.7861,
    "MEAN_ANOMALY": 346.2901,
    "EPHEMERIS_TYPE": 0,
    "CLASSIFICATION_TYPE": "U",
    "NORAD_CAT_ID": 60025,
    "ELEMENT_SET_NO": 999,
    "REV_AT_EPOCH": 585,
    "BSTAR": 0.0070658,
    "MEAN_MOTION_DOT": 0.00595769,
    "MEAN_MOTION_DDOT": 0.0,
    "TLE_LINE1": "1 60025U 24111K   25315.33336806  .00595769  00000+0  70658-2 0  9998",
    "TLE_LINE2": "2 60025  53.1484 260.0423 0014567 119.7861 346.2901 15.58611339  5858",
    "COMMENT": "Grouped by shell and plane from TLE"
  },
  {
    "OBJECT_NAME": "STARLINK-32357",
    "OBJECT_ID": "24158V",
    "EPOCH": "2025-10-28T09:03:12.345408",
    "MEAN_MOTION": 15.82945868,
    "ECCENTRICITY": 0.0014417,
    "INCLINATION": 53.136,
    "RA_OF_ASC_NODE": 268.3227,
    "ARG_OF_PERICENTER": 97.1887,
    "MEAN_ANOMALY": 263.0776,
    "EPHEMERIS_TYPE": 0,
    "CLASSIFICATION_TYPE": "U",
    "NORAD_CAT_ID": 61009,
    "ELEMENT_SET_NO": 999,
    "REV_AT_EPOCH": 6604,
    "BSTAR": 0.0014310999999999998,
    "MEAN_MOTION_DOT": 0.00324283,
    "MEAN_MOTION_DDOT": 0.0,
    "TLE_LINE1": "1 61009U 24158V   25301.37722622  .00324283  00000+0  14311-2 0  9991",
    "TLE_LINE2": "2 61009  53.1360 268.3227 0014417  97.1887 263.0776 15.82945868 66046",
    "COMMENT": "Grouped by shell and plane from TLE"
  },
  {
    "OBJECT_NAME": "STARLINK-11433 [DTC]",
    "OBJECT_ID": "24213A",
    "EPOCH": "2025-11-11T04:14:08.407680",
    "MEAN_MOTION": 15.69790636,
    "ECCENTRICITY": 0.0001576,
    "INCLINATION": 53.1559,
    "RA_OF_ASC_NODE": 265.3189,
    "ARG_OF_PERICENTER": 126.1866,
    "MEAN_ANOMALY": 233.9298,
    "EPHEMERIS_TYPE": 0,
    "CLASSIFICATION_TYPE": "U",
    "NORAD_CAT_ID": 62008,
    "ELEMENT_SET_NO": 999,
    "REV_AT_EPOCH": 5630,
    "BSTAR": 0.0015324,
    "MEAN_MOTION_DOT": 0.00190012,
    "MEAN_MOTION_DDOT": 0.0,
    "TLE_LINE1": "1 62008U 24213A   25315.17648620  .00190012  00000+0  15324-2 0  9997",
    "TLE_LINE2": "2 62008  53.1559 265.3189 0001576 126.1866 233.9298 15.69790636 56301",
    "COMMENT": "Grouped by shell and plane from TLE"
  },
  {
    "OBJECT_NAME": "STARLINK-11262 [DTC]",
    "OBJECT_ID": "24213B",
    "EPOCH": "2025-11-11T06:42:20.047680",
    "MEAN_MOTION": 15.69767935,
    "ECCENTRICITY": 0.0001165,
    "INCLINATION": 53.1577,
    "RA_OF_ASC_NODE": 265.268,
    "ARG_OF_PERICENTER": 85.9526,
    "MEAN_ANOMALY": 274.1625,
    "EPHEMERIS_TYPE": 0,
    "CLASSIFICATION_TYPE": "U",
    "NORAD_CAT_ID": 62009,
    "ELEMENT_SET_NO": 999,
    "REV_AT_EPOCH": 5631,
    "BSTAR": 0.0010617,
    "MEAN_MOTION_DOT": 0.00130384,
    "MEAN_MOTION_DDOT": 0.0,
    "TLE_LINE1": "1 62009U 24213B   25315.27939870  .00130384  00000+0  10617-2 0  9995",
    "TLE_LINE2": "2 62009  53.1577 265.2680 0001165  85.9526 274.1625 15.69767935 56314",
    "COMMENT": "Grouped by shell and plane from TLE"
  },
  {
    "OBJECT_NAME": "STARLINK-11326 [DTC]",
    "OBJECT_ID": "24213C",
    "EPOCH": "2025-11-11T03:10:42.815136",
    "MEAN_MOTION": 15.6977871,
    "ECCENTRICITY": 0.0001369,
    "INCLINATION": 53.1573,
    "RA_OF_ASC_NODE": 265.7613,
    "ARG_OF_PERICENTER": 70.6778,
    "MEAN_ANOMALY": 289.4388,
    "EPHEMERIS_TYPE": 0,
    "CLASSIFICATION_TYPE": "U",
    "NORAD_CAT_ID": 62010,
    "ELEMENT_SET_NO": 999,
    "REV_AT_EPOCH": 5629,
    "BSTAR": 0.0018315,
    "MEAN_MOTION_DOT": 0.00228155,
    "MEAN_MOTION_DDOT": 0.0,
    "TLE_LINE1": "1 62010U 24213C   25315.13243999  .00228155  00000+0  18315-2 0  9999",
    "TLE_LINE2": "2 62010  53.1573 265.7613 0001369  70.6778 289.4388 15.69778710 56294",
    "COMMENT": "Grouped by shell and plane from TLE"
  },
  {
    "OBJECT_NAME": "STARLINK-11330 [DTC]",
    "OBJECT_ID": "24213D",
    "EPOCH": "2025-11-11T06:35:16.107072",
    "MEAN_MOTION": 15.6976973,
    "ECCENTRICITY": 0.000133,
    "INCLINATION": 53.1566,
    "RA_OF_ASC_NODE": 265.2338,
    "ARG_OF_PERICENTER": 103.8294,
    "MEAN_ANOMALY": 256.2872,
    "EPHEMERIS_TYPE": 0,
    "CLASSIFICATION_TYPE": "U",
    "NORAD_CAT_ID": 62011,
    "ELEMENT_SET_NO": 999,
    "REV_AT_EPOCH": 5631,
    "BSTAR": 0.0011182,
    "MEAN_MOTION_DOT": 0.00137482,
    "MEAN_MOTION_DDOT": 0.0,
    "TLE_LINE1": "1 62011U 24213D   25315.27449198  .00137482  00000+0  11182-2 0  9991",
    "TLE_LINE2": "2 62011  53.1566 265.2338 0001330 103.8294 256.2872 15.69769730 56311",
    "COMMENT": "Grouped by shell and plane from TLE"
  },
  {
    "OBJECT_NAME": "STARLINK-11363 [DTC]",
    "OBJECT_ID": "24213E",
    "EPOCH": "2025-11-11T05:59:56.941440",
    "MEAN_MOTION": 15.69794695,
    "ECCENTRICITY": 0.0002344,
    "INCLINATION": 53.1569,
    "RA_OF_ASC_NODE": 265.0698,
    "ARG_OF_PERICENTER": 114.6174,
    "MEAN_ANOMALY": 245.5089,
    "EPHEMERIS_TYPE": 0,
    "CLASSIFICATION_TYPE": "U",
    "NORAD_CAT_ID": 62012,
    "ELEMENT_SET_NO": 999,
    "REV_AT_EPOCH": 5631,
    "BSTAR": 0.001586,
    "MEAN_MOTION_DOT": 0.00196879,
    "MEAN_MOTION_DDOT": 0.0,
    "TLE_LINE1": "1 62012U 24213E   25315.24996460  .00196879  00000+0  15860-2 0  9990",
    "TLE_LINE2": "2 62012  53.1569 265.0698 0002344 114.6174 245.5089 15.69794695 56314",
    "COMMENT": "Grouped by shell and plane from TLE"
  },
  {
    "OBJECT_NAME": "STARLINK-11377 [DTC]",
    "OBJECT_ID": "24213F",
    "EPOCH": "2025-11-11T05:52:53.438880",
    "MEAN_MOTION": 15.69785142,
    "ECCENTRICITY": 0.0002214,
    "INCLINATION": 53.1572,
    "RA_OF_ASC_NODE": 265.042,
    "ARG_OF_PERICENTER": 77.867,
    "MEAN_ANOMALY": 282.2596,
    "EPHEMERIS_TYPE": 0,
    "CLASSIFICATION_TYPE": "U",
    "NORAD_CAT_ID": 62013,
    "ELEMENT_SET_NO": 999,
    "REV_AT_EPOCH": 5631,
    "BSTAR": 0.0021013,
    "MEAN_MOTION_DOT": 0.00263038,
    "MEAN_MOTION_DDOT": 0.0,
    "TLE_LINE1": "1 62013U 24213F   25315.24506295  .00263038  00000+0  21013-2 0  9993",
    "TLE_LINE2": "2 62013  53.1572 265.0420 0002214  77.8670 282.2596 15.69785142 56317",
    "COMMENT": "Grouped by shell and plane from TLE"
  },
  {
    "OBJECT_NAME": "STARLINK-11385 [DTC]",
    "OBJECT_ID": "24213G",
    "EPOCH": "2025-11-11T06:28:12.274464",
    "MEAN_MOTION": 15.69795536,
    "ECCENTRICITY": 0.0001067,
    "INCLINATION": 53.1572,
    "RA_OF_ASC_NODE": 265.2019,
    "ARG_OF_PERICENTER": 114.9274,
    "MEAN_ANOMALY": 245.1855,
    "EPHEMERIS_TYPE": 0,
    "CLASSIFICATION_TYPE": "U",
    "NORAD_CAT_ID": 62014,
    "ELEMENT_SET_NO": 999,
    "REV_AT_EPOCH": 5631,
    "BSTAR": 0.0015263,
    "MEAN_MOTION_DOT": 0.00189266,
    "MEAN_MOTION_DDOT": 0.0,
    "TLE_LINE1": "1 62014U 24213G   25315.26958651  .00189266  00000+0  15263-2 0  9993",
    "TLE_LINE2": "2 62014  53.1572 265.2019 0001067 114.9274 245.1855 15.69795536 56316",
    "COMMENT": "Grouped by shell and plane from TLE"
  },
  {
    "OBJECT_NAME": "STARLINK-11396 [DTC]",
    "OBJECT_ID": "24213H",
    "EPOCH": "2025-11-11T05:38:45.686400",
    "MEAN_MOTION": 15.69754434,
    "ECCENTRICITY": 0.0001707,
    "INCLINATION": 53.1564,
    "RA_OF_ASC_NODE": 264.9702,
    "ARG_OF_PERICENTER": 103.8983,
    "MEAN_ANOMALY": 256.2225,
    "EPHEMERIS_TYPE": 0,
    "CLASSIFICATION_TYPE": "U",
    "NORAD_CAT_ID": 62015,
    "ELEMENT_SET_NO": 999,
    "REV_AT_EPOCH": 5631,
    "BSTAR": 0.00096919,
    "MEAN_MOTION_DOT": 0.00118742,
    "MEAN_MOTION_DDOT": 0.0,
    "TLE_LINE1": "1 62015U 24213H   25315.23525100  .00118742  00000+0  96919-3 0  9999",
    "TLE_LINE2": "2 62015  53.1564 264.9702 0001707 103.8983 256.2225 15.69754434 56314",
    "COMMENT": "Grouped by shell and plane from TLE"
  },
  {
    "OBJECT_NAME": "STARLINK-11393 [DTC]",
    "OBJECT_ID": "24213J",
    "EPOCH": "2025-11-11T07:03:22.887360",
    "MEAN_MOTION": 15.69771447,
    "ECCENTRICITY": 0.0001448,
    "INCLINATION": 53.1574,
    "RA_OF_ASC_NODE": 264.6269,
    "ARG_OF_PERICENTER": 100.7413,
    "MEAN_ANOMALY": 259.3768,
    "EPHEMERIS_TYPE": 0,
    "CLASSIFICATION_TYPE": "U",
    "NORAD_CAT_ID": 62016,
    "ELEMENT_SET_NO": 999,
    "REV_AT_EPOCH": 5632,
    "BSTAR": 0.0015041,
    "MEAN_MOTION_DOT": 0.00186249,
    "MEAN_MOTION_DDOT": 0.0,
    "TLE_LINE1": "1 62016U 24213J   25315.29401490  .00186249  00000+0  15041-2 0  9994",
    "TLE_LINE2": "2 62016  53.1574 264.6269 0001448 100.7413 259.3768 15.69771447 56327",
    "COMMENT": "Grouped by shell and plane from TLE"
  },
  {
    "OBJECT_NAME": "STARLINK-11343 [DTC]",
    "OBJECT_ID": "24213K",
    "EPOCH": "2025-11-11T04:49:27.594912",
    "MEAN_MOTION": 15.69772531,
    "ECCENTRICITY": 0.0001526,
    "INCLINATION": 53.1568,
    "RA_OF_ASC_NODE": 265.4838,
    "ARG_OF_PERICENTER": 88.7133,
    "MEAN_ANOMALY": 271.406,
    "EPHEMERIS_TYPE": 0,
    "CLASSIFICATION_TYPE": "U",
    "NORAD_CAT_ID": 62017,
    "ELEMENT_SET_NO": 999,
    "REV_AT_EPOCH": 5630,
    "BSTAR": 0.0013466,
    "MEAN_MOTION_DOT": 0.00166295,
    "MEAN_MOTION_DDOT": 0.0,
    "TLE_LINE1": "1 62017U 24213K   25315.20101383  .00166295  00000+0  13466-2 0  9992",
    "TLE_LINE2": "2 62017  53.1568 265.4838 0001526  88.7133 271.4060 15.69772531 56306",
    "COMMENT": "Grouped by shell and plane from TLE"
  }
]